{"type":"FeatureCollection","features":[{"type":"Feature","geometry":{"type":"Polygon","coordinates":[[[-83.5711,42.8733],[-83.4533,42.8763],[-83.4607,43.2231],[-83.9321,43.2204],[-83.9225,42.7808],[-83.6865,42.7833],[-83.6894,42.8713],[-83.5711,42.8733]]]},"properties":{"n":"Genesee","st":"partial","note":"Some roads only; driver's license required","upd":"2020","src":"https://www.vvmapping.com/trails/MICounties/MICounties.html","ok":0}},{"type":"Feature","geometry":{"type":"Polygon","coordinates":[[[-83.4607,43.2328],[-83.3517,43.2352],[-83.3544,43.3223],[-83.1038,43.3274],[-83.1178,43.6755],[-83.4666,43.6676],[-83.4674,43.7289],[-83.7083,43.8287],[-83.6992,43.5974],[-83.6956,43.2214],[-83.4607,43.2231],[-83.4607,43.2328]]]},"properties":{"n":"Tuscola","st":"open","note":"16 and older","upd":"2014","src":"https://www.vvmapping.com/trails/MICounties/MICounties.html","ok":0}},{"type":"Feature","geometry":{"type":"Polygon","coordinates":[[[-84.7185,42.4215],[-84.6004,42.422],[-84.6028,42.7699],[-85.0742,42.7708],[-85.0716,42.4214],[-84.7185,42.4215]]]},"properties":{"n":"Eaton","st":"none","note":"No county-wide ORV ordinance reported","upd":"","src":"https://www.vvmapping.com/trails/MICounties/MICounties.html","ok":0}},{"type":"Feature","geometry":{"type":"Polygon","coordinates":[[[-85.9919,42.0701],[-86.2229,42.0715],[-86.2261,41.7604],[-85.7846,41.7597],[-85.7904,41.7659],[-85.7864,41.7767],[-85.7694,41.7847],[-85.7602,41.7988],[-85.7629,42.0693],[-85.9919,42.0701]]]},"properties":{"n":"Cass","st":"none","note":"No county-wide ORV ordinance reported","upd":"","src":"https://www.vvmapping.com/trails/MICounties/MICounties.html","ok":0}},{"type":"Feature","geometry":{"type":"Polygon","coordinates":[[[-83.2863,42.0891],[-83.2951,42.0942],[-83.4189,42.0936],[-83.4206,42.0878],[-83.7739,42.0824],[-83.7631,41.7236],[-83.4159,41.7338],[-83.1125,41.9594],[-83.144,42.0279],[-83.1846,42.0285],[-83.2197,42.0491],[-83.2304,42.0487],[-83.2291,42.0548],[-83.2548,42.064],[-83.2516,42.068],[-83.2581,42.074],[-83.2676,42.0691],[-83.2863,42.0891]]]},"properties":{"n":"Monroe","st":"none","note":"No county-wide ORV ordinance reported","upd":"","src":"https://www.vvmapping.com/trails/MICounties/MICounties.html","ok":0}},{"type":"Feature","geometry":{"type":"Polygon","coordinates":[[[-89.8882,46.7655],[-90.0002,46.7655],[-90.0002,46.9999],[-90.1117,47.042],[-90.4184,46.5661],[-90.3933,46.5324],[-90.3507,46.5403],[-90.3468,46.5493],[-90.3394,46.5493],[-90.3435,46.5525],[-90.3322,46.5534],[-90.3094,46.5373],[-90.3166,46.5169],[-90.2845,46.5187],[-90.2769,46.5244],[-90.2726,46.5045],[-90.2312,46.5099],[-90.2309,46.5015],[-90.2166,46.5016],[-90.2042,46.4783],[-90.1888,46.4689],[-90.1908,46.4598],[-90.1783,46.4574],[-90.1784,46.4405],[-90.1674,46.4417],[-90.1573,46.4211],[-90.1584,46.4095],[-90.1322,46.3811],[-90.134,46.3718],[-90.1187,46.3593],[-90.1206,46.337],[-89.0916,46.1384],[-88.9909,46.0974],[-88.991,46.3323],[-89.3655,46.3331],[-89.3651,46.5059],[-89.7406,46.5056],[-89.74,46.5925],[-89.8644,46.5926],[-89.8638,46.7654],[-89.8882,46.7655]]]},"properties":{"n":"Gogebic","st":"open","note":"","upd":"2014","src":"https://www.vvmapping.com/trails/MICounties/MICounties.html","ok":0}},{"type":"Feature","geometry":{"type":"Polygon","coordinates":[[[-87.2418,46.1296],[-87.2415,46.1591],[-87.1161,46.1591],[-87.1121,47.2233],[-88.0466,47.2187],[-88.0447,46.7654],[-87.9914,46.7652],[-87.9915,46.6791],[-88.1158,46.6784],[-88.1174,46.2466],[-87.6156,46.2467],[-87.6171,45.986],[-87.2429,45.9851],[-87.2418,46.1296]]]},"properties":{"n":"Marquette","st":"partial","note":"Some roads only","upd":"2014","src":"https://www.vvmapping.com/trails/MICounties/MICounties.html","ok":0}},{"type":"Feature","geometry":{"type":"Polygon","coordinates":[[[-85.6592,44.7753],[-85.6151,44.7787],[-85.6096,44.7992],[-85.6139,44.8289],[-85.591,44.8767],[-85.5947,44.9011],[-85.5627,44.9482],[-85.5505,45.0511],[-85.4689,45.1307],[-85.4585,45.1965],[-85.4629,45.2293],[-85.476,45.264],[-85.6251,45.4546],[-85.6795,45.507],[-85.7361,45.5419],[-85.7866,45.5629],[-85.8558,45.5784],[-86.4608,45.5844],[-86.4641,45.3248],[-86.2495,45.2361],[-86.4999,45.0808],[-86.6863,44.881],[-86.7345,44.7731],[-86.1251,44.7786],[-85.6592,44.7753]]]},"properties":{"n":"Leelanau","st":"open","note":"","upd":"2014","src":"https://www.vvmapping.com/trails/MICounties/MICounties.html","ok":0}},{"type":"Feature","geometry":{"type":"Polygon","coordinates":[[[-84.7087,41.6991],[-84.3604,41.7066],[-84.3633,42.0735],[-84.8265,42.0725],[-84.8251,41.76],[-84.8059,41.7602],[-84.806,41.6961],[-84.7087,41.6991]]]},"properties":{"n":"Hillsdale","st":"partial","note":"Some roads only; driver's license required; 16 and older","upd":"2015","src":"https://www.vvmapping.com/trails/MICounties/MICounties.html","ok":0}},{"type":"Feature","geometry":{"type":"Polygon","coordinates":[[[-84.7326,45.8099],[-84.7343,45.2019],[-84.2466,45.1987],[-84.252,45.626],[-84.2043,45.6262],[-84.2011,45.7523],[-84.25,45.7398],[-84.3663,45.6959],[-84.4469,45.6947],[-84.5267,45.7165],[-84.6512,45.7923],[-84.6955,45.8063],[-84.7326,45.8099]]]},"properties":{"n":"Cheboygan","st":"open","note":"","upd":"2014","src":"https://www.vvmapping.com/trails/MICounties/MICounties.html","ok":0}},{"type":"Feature","geometry":{"type":"Polygon","coordinates":[[[-84.851,44.5327],[-84.8509,44.5111],[-84.3706,44.5072],[-84.3717,44.855],[-84.8473,44.858],[-84.851,44.5327]]]},"properties":{"n":"Crawford","st":"partial","note":"Some roads only","upd":"2016","src":"https://www.vvmapping.com/trails/MICounties/MICounties.html","ok":0}},{"type":"Feature","geometry":{"type":"Polygon","coordinates":[[[-84.6075,43.466],[-84.846,43.4662],[-84.8456,43.2922],[-84.8353,43.2922],[-84.8369,43.1189],[-84.3678,43.1179],[-84.3699,43.466],[-84.6075,43.466]]]},"properties":{"n":"Gratiot","st":"open","note":"","upd":"2014","src":"https://www.vvmapping.com/trails/MICounties/MICounties.html","ok":0}},{"type":"Feature","geometry":{"type":"Polygon","coordinates":[[[-87.6969,45.8988],[-87.6174,45.8988],[-87.6156,46.2467],[-88.1174,46.2466],[-88.1168,45.9216],[-88.095,45.9158],[-88.1069,45.9008],[-88.1009,45.8818],[-88.0698,45.8729],[-88.1345,45.8225],[-88.1301,45.8097],[-88.1076,45.803],[-88.0948,45.7858],[-88.0714,45.7799],[-87.9914,45.7954],[-87.9809,45.777],[-87.9898,45.7729],[-87.9864,45.7696],[-87.9608,45.7576],[-87.9067,45.7595],[-87.8984,45.7525],[-87.8769,45.7544],[-87.8622,45.745],[-87.8639,45.7364],[-87.8465,45.7225],[-87.6972,45.723],[-87.6969,45.8988]]]},"properties":{"n":"Dickinson","st":"open","note":"","upd":"2014","src":"https://www.vvmapping.com/trails/MICounties/MICounties.html","ok":0}},{"type":"Feature","geometry":{"type":"Polygon","coordinates":[[[-84.9422,42.0726],[-85.2936,42.0716],[-85.2922,41.7599],[-84.8251,41.76],[-84.8265,42.0725],[-84.9422,42.0726]]]},"properties":{"n":"Branch","st":"none","note":"No county-wide ORV ordinance reported","upd":"","src":"https://www.vvmapping.com/trails/MICounties/MICounties.html","ok":0}},{"type":"Feature","geometry":{"type":"Polygon","coordinates":[[[-85.7655,42.3317],[-85.7647,42.4207],[-87.04,42.417],[-87.0883,42.2353],[-87.0,42.2355],[-87.0,42.2404],[-86.2236,42.2434],[-86.2229,42.0715],[-85.7629,42.0693],[-85.7655,42.3317]]]},"properties":{"n":"Van Buren","st":"partial","note":"Some townships only; 16 and older","upd":"2019","src":"https://www.vvmapping.com/trails/MICounties/MICounties.html","ok":0}},{"type":"Feature","geometry":{"type":"Polygon","coordinates":[[[-86.1809,44.5179],[-86.8469,44.5194],[-86.8552,44.5003],[-86.8477,44.5003],[-86.988,44.1826],[-86.3775,44.1786],[-85.8212,44.1642],[-85.8178,44.513],[-86.1809,44.5179]]]},"properties":{"n":"Manistee","st":"partial","note":"Some townships only; April 1 to November 30","upd":"2014","src":"https://www.vvmapping.com/trails/MICounties/MICounties.html","ok":0}},{"type":"Feature","geometry":{"type":"Polygon","coordinates":[[[-86.2246,41.8411],[-86.2236,42.2434],[-87.0,42.2404],[-87.0,42.2355],[-87.0883,42.2353],[-87.2078,41.761],[-86.2261,41.7604],[-86.2246,41.8411]]]},"properties":{"n":"Berrien","st":"none","note":"No county-wide ORV ordinance reported","upd":"","src":"https://www.vvmapping.com/trails/MICounties/MICounties.html","ok":0}},{"type":"Feature","geometry":{"type":"Polygon","coordinates":[[[-86.0401,43.9897],[-86.0435,44.1671],[-86.3775,44.1786],[-86.988,44.1826],[-87.0132,44.1319],[-87.0931,43.8201],[-86.0379,43.8156],[-86.0401,43.9897]]]},"properties":{"n":"Mason","st":"partial","note":"Some townships only; 6 AM to 11 PM","upd":"2014","src":"https://www.vvmapping.com/trails/MICounties/MICounties.html","ok":0}},{"type":"Feature","geometry":{"type":"Polygon","coordinates":[[[-85.3329,44.7992],[-85.334,44.5123],[-84.8509,44.5111],[-84.8473,44.858],[-85.2917,44.8596],[-85.3277,44.8507],[-85.3165,44.8217],[-85.3326,44.813],[-85.3329,44.7992]]]},"properties":{"n":"Kalkaska","st":"open","note":"","upd":"2014","src":"https://www.vvmapping.com/trails/MICounties/MICounties.html","ok":0}},{"type":"Feature","geometry":{"type":"Polygon","coordinates":[[[-84.3677,45.1126],[-84.3666,45.1987],[-84.7343,45.2019],[-84.7348,45.1149],[-84.8575,45.1167],[-84.8573,45.0298],[-84.8495,45.0296],[-84.8473,44.858],[-84.3717,44.855],[-84.3677,45.1126]]]},"properties":{"n":"Otsego","st":"partial","note":"Some roads only; 16 and older","upd":"2014","src":"https://www.vvmapping.com/trails/MICounties/MICounties.html","ok":0}},{"type":"Feature","geometry":{"type":"Polygon","coordinates":[[[-85.3383,44.4269],[-85.3347,44.1648],[-84.8517,44.1614],[-84.8558,44.422],[-84.8509,44.5111],[-85.334,44.5123],[-85.3383,44.4269]]]},"properties":{"n":"Missaukee","st":"open","note":"","upd":"2014","src":"https://www.vvmapping.com/trails/MICounties/MICounties.html","ok":0}},{"type":"Feature","geometry":{"type":"Polygon","coordinates":[[[-83.3168,42.442],[-83.0834,42.4472],[-83.1029,42.8886],[-83.6894,42.8713],[-83.6648,42.4312],[-83.3168,42.442]]]},"properties":{"n":"Oakland","st":"none","note":"No county-wide ORV ordinance reported","upd":"","src":"https://www.vvmapping.com/trails/MICounties/MICounties.html","ok":0}},{"type":"Feature","geometry":{"type":"Polygon","coordinates":[[[-84.9558,42.7705],[-84.8371,42.7705],[-84.8369,43.1189],[-85.3125,43.1188],[-85.3096,42.7699],[-84.9558,42.7705]]]},"properties":{"n":"Ionia","st":"mostly","note":"","upd":"2015","src":"https://www.vvmapping.com/trails/MICounties/MICounties.html","ok":0}},{"type":"Feature","geometry":{"type":"Polygon","coordinates":[[[-82.6433,43.164],[-82.3341,43.1704],[-82.123,43.5908],[-82.1455,43.6956],[-82.6066,43.6905],[-83.1178,43.6755],[-83.1038,43.3274],[-83.1204,43.327],[-83.119,43.2837],[-83.0004,43.2849],[-82.9963,43.1541],[-82.6433,43.164]]]},"properties":{"n":"Sanilac","st":"mostly","note":"Primary roads for access only","upd":"2014","src":"https://www.vvmapping.com/trails/MICounties/MICounties.html","ok":0}},{"type":"Feature","geometry":{"type":"Polygon","coordinates":[[[-83.5653,44.1635],[-84.1661,44.1618],[-84.1664,43.9969],[-84.0454,43.997],[-84.0448,43.9111],[-83.9076,43.9104],[-83.7085,43.8339],[-83.1853,44.1684],[-83.5653,44.1635]]]},"properties":{"n":"Arenac","st":"open","note":"","upd":"2014","src":"https://www.vvmapping.com/trails/MICounties/MICounties.html","ok":0}},{"type":"Feature","geometry":{"type":"Polygon","coordinates":[[[-84.9648,45.2916],[-84.7327,45.2894],[-84.7326,45.8103],[-84.7655,45.8113],[-84.9425,45.8427],[-85.0418,45.8491],[-85.1251,45.8664],[-85.2396,45.8707],[-85.2206,45.8336],[-85.2182,45.7942],[-85.2975,45.6552],[-85.3082,45.6192],[-85.3014,45.5805],[-85.2832,45.5502],[-85.2078,45.5],[-85.1023,45.3974],[-85.0957,45.3751],[-85.0965,45.3357],[-85.046,45.3347],[-85.0228,45.3101],[-85.0142,45.2815],[-85.0018,45.2723],[-84.9647,45.2714],[-84.9648,45.2916]]]},"properties":{"n":"Emmet","st":"partial","note":"Some roads only","upd":"2014","src":"https://www.vvmapping.com/trails/MICounties/MICounties.html","ok":0}},{"type":"Feature","geometry":{"type":"Polygon","coordinates":[[[-82.7584,43.6859],[-82.1455,43.6956],[-82.2499,44.1588],[-83.0,44.1711],[-83.1853,44.1684],[-83.7136,43.8309],[-83.4674,43.7289],[-83.4666,43.6676],[-82.7584,43.6859]]]},"properties":{"n":"Huron","st":"open","note":"14 and older","upd":"2014","src":"https://www.vvmapping.com/trails/MICounties/MICounties.html","ok":0}},{"type":"Feature","geometry":{"type":"Polygon","coordinates":[[[-83.7662,44.51],[-83.8866,44.509],[-83.884,44.1618],[-83.0,44.1711],[-82.2499,44.1588],[-82.3295,44.5128],[-83.7662,44.51]]]},"properties":{"n":"Iosco","st":"partial","note":"Some roads only","upd":"2014","src":"https://www.vvmapping.com/trails/MICounties/MICounties.html","ok":0}},{"type":"Feature","geometry":{"type":"Polygon","coordinates":[[[-86.0435,44.1671],[-86.0379,43.8156],[-85.5624,43.8155],[-85.5646,44.1649],[-86.0435,44.1671]]]},"properties":{"n":"Lake","st":"partial","note":"Designated county roads only (listed in the ordinance), year-round, far right of the road. Never on M-37, US-10 or other state/federal highways.","upd":"Feb 2026","src":"https://lakecountymi.gov/wp-content/uploads/2026/02/Lake-County-2026-ORV-Ordinance-and-Map.pdf","ok":1}},{"type":"Feature","geometry":{"type":"Polygon","coordinates":[[[-85.9084,43.2059],[-85.9074,43.1189],[-87.1077,43.1182],[-87.0587,42.7652],[-85.7825,42.7682],[-85.7907,43.2052],[-85.9084,43.2059]]]},"properties":{"n":"Ottawa","st":"none","note":"No county-wide ORV ordinance reported","upd":"","src":"https://www.vvmapping.com/trails/MICounties/MICounties.html","ok":0}},{"type":"Feature","geometry":{"type":"Polygon","coordinates":[[[-82.8988,42.3579],[-82.8303,42.3735],[-82.7499,42.4511],[-83.5519,42.4352],[-83.5394,42.0856],[-83.2951,42.0942],[-83.2835,42.0897],[-83.2676,42.0691],[-83.2581,42.074],[-83.2516,42.068],[-83.2548,42.064],[-83.2344,42.059],[-83.2304,42.0487],[-83.2197,42.0491],[-83.1991,42.0348],[-83.1846,42.0285],[-83.144,42.0279],[-83.1494,42.0403],[-83.1217,42.1254],[-83.1339,42.1748],[-83.128,42.2387],[-83.0977,42.2897],[-83.0636,42.3169],[-82.8988,42.3579]]]},"properties":{"n":"Wayne","st":"none","note":"No county-wide ORV ordinance reported","upd":"","src":"https://www.vvmapping.com/trails/MICounties/MICounties.html","ok":0}},{"type":"Feature","geometry":{"type":"Polygon","coordinates":[[[-85.1899,42.4206],[-85.0716,42.4214],[-85.0742,42.7708],[-85.5456,42.7681],[-85.5432,42.4214],[-85.1899,42.4206]]]},"properties":{"n":"Barry","st":"mostly","note":"Mirror required","upd":"2016","src":"https://www.vvmapping.com/trails/MICounties/MICounties.html","ok":0}},{"type":"Feature","geometry":{"type":"Polygon","coordinates":[[[-84.8366,43.1805],[-84.8353,43.2922],[-84.8456,43.2922],[-84.846,43.4662],[-85.5623,43.4681],[-85.5625,43.2943],[-85.3124,43.2942],[-85.3125,43.1188],[-84.8369,43.1189],[-84.8366,43.1805]]]},"properties":{"n":"Montcalm","st":"open","note":"","upd":"2014","src":"https://www.vvmapping.com/trails/MICounties/MICounties.html","ok":0}},{"type":"Feature","geometry":{"type":"Polygon","coordinates":[[[-87.3265,45.6379],[-87.3254,45.8987],[-87.3677,45.899],[-87.3678,45.9853],[-87.6171,45.986],[-87.6174,45.8988],[-87.6969,45.8988],[-87.6972,45.723],[-87.8466,45.7225],[-87.8101,45.7102],[-87.8051,45.705],[-87.8091,45.6997],[-87.7822,45.6831],[-87.7816,45.6733],[-87.8242,45.662],[-87.8244,45.6477],[-87.7959,45.6188],[-87.7808,45.6146],[-87.7747,45.602],[-87.7924,45.5631],[-87.8319,45.5677],[-87.833,45.5595],[-87.8034,45.5383],[-87.8022,45.5131],[-87.7928,45.5],[-87.813,45.4642],[-87.8617,45.4345],[-87.8493,45.4039],[-87.8591,45.399],[-87.8594,45.3882],[-87.8754,45.3794],[-87.8715,45.3715],[-87.8876,45.3538],[-87.8704,45.3563],[-87.8759,45.3648],[-87.8717,45.3666],[-87.8635,45.353],[-87.8504,45.3475],[-87.8501,45.3404],[-87.8326,45.3522],[-87.7541,45.3494],[-87.6998,45.3879],[-87.675,45.3825],[-87.6574,45.3688],[-87.648,45.3398],[-87.6719,45.3081],[-87.6875,45.2981],[-87.6988,45.2694],[-87.7104,45.2593],[-87.7113,45.24],[-87.725,45.2321],[-87.7262,45.2094],[-87.7417,45.1982],[-87.7361,45.1722],[-87.6839,45.1441],[-87.66,45.1075],[-87.4425,45.0764],[-87.4057,45.202],[-87.3154,45.2407],[-87.1712,45.3525],[-87.1278,45.4095],[-87.1291,45.5505],[-87.3275,45.5513],[-87.3265,45.6379]]]},"properties":{"n":"Menominee","st":"partial","note":"Some roads only","upd":"2014","src":"https://www.vvmapping.com/trails/MICounties/MICounties.html","ok":0}},{"type":"Feature","geometry":{"type":"Polygon","coordinates":[[[-84.7835,43.8146],[-84.606,43.8154],[-84.6081,44.1605],[-85.0874,44.1642],[-85.0888,43.8137],[-84.7835,43.8146]]]},"properties":{"n":"Clare","st":"mostly","note":"","upd":"2014","src":"https://www.vvmapping.com/trails/MICounties/MICounties.html","ok":0}},{"type":"Feature","geometry":{"type":"Polygon","coordinates":[[[-86.0116,42.4189],[-85.5432,42.4214],[-85.5456,42.7681],[-87.0587,42.7652],[-87.0199,42.4938],[-87.04,42.417],[-86.0116,42.4189]]]},"properties":{"n":"Allegan","st":"none","note":"No county-wide ORV ordinance reported","upd":"","src":"https://www.vvmapping.com/trails/MICounties/MICounties.html","ok":0}},{"type":"Feature","geometry":{"type":"Polygon","coordinates":[[[-85.5771,44.1649],[-85.3348,44.1651],[-85.3384,44.4254],[-85.334,44.5123],[-85.8178,44.513],[-85.8212,44.1642],[-85.5771,44.1649]]]},"properties":{"n":"Wexford","st":"open","note":"","upd":"2009","src":"https://www.vvmapping.com/trails/MICounties/MICounties.html","ok":0}},{"type":"Feature","geometry":{"type":"Polygon","coordinates":[[[-88.3658,46.42],[-88.1166,46.42],[-88.1158,46.6784],[-87.9915,46.6791],[-87.9914,46.7652],[-88.0447,46.7654],[-88.0437,47.044],[-88.4495,46.9393],[-88.5522,46.9385],[-88.5519,46.8518],[-88.679,46.8518],[-88.6794,46.4201],[-88.3658,46.42]]]},"properties":{"n":"Baraga","st":"open","note":"","upd":"2014","src":"https://www.vvmapping.com/trails/MICounties/MICounties.html","ok":0}},{"type":"Feature","geometry":{"type":"Polygon","coordinates":[[[-87.368,45.9413],[-87.3677,45.899],[-87.3254,45.8987],[-87.3275,45.5513],[-87.1291,45.5505],[-87.1278,45.4095],[-87.1011,45.4442],[-86.7542,45.4436],[-86.4641,45.3248],[-86.4591,45.8964],[-86.4903,45.8963],[-86.4901,46.1582],[-87.2415,46.1591],[-87.2429,45.9851],[-87.3678,45.9853],[-87.368,45.9413]]]},"properties":{"n":"Delta","st":"mostly","note":"","upd":"2014","src":"https://www.vvmapping.com/trails/MICounties/MICounties.html","ok":0}},{"type":"Feature","geometry":{"type":"Polygon","coordinates":[[[-84.0083,42.078],[-84.0082,42.0736],[-84.0792,42.0722],[-84.3633,42.0735],[-84.3604,41.7066],[-83.7631,41.7236],[-83.7739,42.0824],[-84.0083,42.078]]]},"properties":{"n":"Lenawee","st":"none","note":"No county-wide ORV ordinance reported","upd":"","src":"https://www.vvmapping.com/trails/MICounties/MICounties.html","ok":0}},{"type":"Feature","geometry":{"type":"Polygon","coordinates":[[[-84.7169,42.2469],[-84.7185,42.4215],[-85.2995,42.4196],[-85.2936,42.0716],[-84.7096,42.0704],[-84.7169,42.2469]]]},"properties":{"n":"Calhoun","st":"none","note":"No county-wide ORV ordinance reported","upd":"","src":"https://www.vvmapping.com/trails/MICounties/MICounties.html","ok":0}},{"type":"Feature","geometry":{"type":"Polygon","coordinates":[[[-85.5646,44.1648],[-85.5624,43.8155],[-85.0888,43.8137],[-85.0874,44.1642],[-85.5646,44.1648]]]},"properties":{"n":"Osceola","st":"open","note":"","upd":"2014","src":"https://www.vvmapping.com/trails/MICounties/MICounties.html","ok":0}},{"type":"Feature","geometry":{"type":"Polygon","coordinates":[[[-84.608,43.6407],[-84.606,43.8154],[-85.0888,43.8137],[-85.085,43.4662],[-84.6075,43.466],[-84.608,43.6407]]]},"properties":{"n":"Isabella","st":"open","note":"","upd":"2014","src":"https://www.vvmapping.com/trails/MICounties/MICounties.html","ok":0}},{"type":"Feature","geometry":{"type":"Polygon","coordinates":[[[-83.1029,42.8886],[-82.9836,42.8937],[-83.0004,43.2849],[-83.119,43.2837],[-83.1204,43.327],[-83.3544,43.3223],[-83.3517,43.2352],[-83.4607,43.2328],[-83.4534,42.8804],[-83.1029,42.8886]]]},"properties":{"n":"Lapeer","st":"mostly","note":"Driver's license required; 16 and older","upd":"2014","src":"https://www.vvmapping.com/trails/MICounties/MICounties.html","ok":0}},{"type":"Feature","geometry":{"type":"Polygon","coordinates":[[[-85.4313,41.7596],[-85.2922,41.7599],[-85.2936,42.0716],[-85.7629,42.0693],[-85.7602,41.7988],[-85.7694,41.7847],[-85.7862,41.7769],[-85.7904,41.7659],[-85.7844,41.7602],[-85.7913,41.7591],[-85.4313,41.7596]]]},"properties":{"n":"St. Joseph","st":"open","note":"","upd":"2019","src":"https://www.vvmapping.com/trails/MICounties/MICounties.html","ok":0}},{"type":"Feature","geometry":{"type":"Polygon","coordinates":[[[-84.1503,42.6852],[-84.1582,42.7766],[-84.6028,42.7699],[-84.6004,42.422],[-84.1407,42.4246],[-84.1503,42.6852]]]},"properties":{"n":"Ingham","st":"none","note":"No county-wide ORV ordinance reported","upd":"","src":"https://www.vvmapping.com/trails/MICounties/MICounties.html","ok":0}},{"type":"Feature","geometry":{"type":"Polygon","coordinates":[[[-88.1169,46.3333],[-88.1166,46.42],[-88.9912,46.4197],[-88.9909,46.0974],[-88.8508,46.0403],[-88.816,46.0206],[-88.7965,46.0236],[-88.8007,46.03],[-88.7965,46.0337],[-88.7893,46.0285],[-88.7787,46.0317],[-88.7839,46.0238],[-88.7802,46.0154],[-88.7698,46.0189],[-88.7706,46.0256],[-88.759,46.0196],[-88.739,46.0275],[-88.7213,46.0222],[-88.7183,46.0132],[-88.7037,46.0183],[-88.6789,46.0136],[-88.6635,45.9927],[-88.6708,45.9885],[-88.616,45.9879],[-88.6127,46.0045],[-88.6012,46.0178],[-88.5883,46.0051],[-88.5657,46.0157],[-88.5492,46.0129],[-88.5337,46.0211],[-88.5147,46.02],[-88.5064,46.0176],[-88.498,45.9958],[-88.4894,45.9914],[-88.4752,45.9931],[-88.4708,46.001],[-88.4587,45.9995],[-88.4164,45.9751],[-88.3886,45.9826],[-88.3805,45.9918],[-88.3303,45.9658],[-88.3273,45.955],[-88.3203,45.9637],[-88.2938,45.9509],[-88.2469,45.9635],[-88.2448,45.9529],[-88.2371,45.9483],[-88.2099,45.9442],[-88.1921,45.9527],[-88.1173,45.9214],[-88.1169,46.3333]]]},"properties":{"n":"Iron","st":"open","note":"","upd":"2014","src":"https://www.vvmapping.com/trails/MICounties/MICounties.html","ok":0}},{"type":"Feature","geometry":{"type":"Polygon","coordinates":[[[-88.9895,46.6801],[-88.8645,46.6793],[-88.8639,46.765],[-88.9325,46.7648],[-88.9333,47.0313],[-88.9489,47.4771],[-89.0001,47.4999],[-89.6807,47.7146],[-89.9571,47.2911],[-90.1117,47.042],[-90.0002,46.9999],[-90.0002,46.7655],[-89.8638,46.7654],[-89.8644,46.5926],[-89.74,46.5925],[-89.7406,46.5056],[-89.3651,46.5059],[-89.3655,46.3331],[-88.991,46.3323],[-88.9895,46.6801]]]},"properties":{"n":"Ontonagon","st":"mostly","note":"","upd":"2014","src":"https://www.vvmapping.com/trails/MICounties/MICounties.html","ok":0}},{"type":"Feature","geometry":{"type":"Polygon","coordinates":[[[-85.2362,46.875],[-85.2378,46.2454],[-85.1133,46.2457],[-85.1125,46.1583],[-84.3635,46.158],[-84.3631,46.0716],[-84.2389,46.0715],[-84.2393,45.9849],[-84.1142,45.9852],[-84.1231,45.7777],[-83.6369,45.7739],[-83.4336,45.9989],[-83.5715,46.106],[-83.6546,46.1221],[-83.7595,46.1032],[-83.8262,46.1193],[-83.9035,46.0609],[-83.9554,46.0572],[-83.9761,46.1026],[-84.0059,46.1185],[-84.0057,46.1496],[-84.077,46.1876],[-84.1081,46.2412],[-84.0978,46.2565],[-84.1156,46.2682],[-84.1196,46.315],[-84.1062,46.322],[-84.1389,46.3722],[-84.1462,46.4185],[-84.1112,46.5041],[-84.1289,46.5301],[-84.1774,46.5269],[-84.194,46.5401],[-84.2261,46.5339],[-84.2549,46.5008],[-84.2758,46.4928],[-84.342,46.5075],[-84.374,46.5091],[-84.3947,46.4992],[-84.4203,46.5011],[-84.4451,46.489],[-84.4756,46.4529],[-84.557,46.4606],[-84.763,46.6343],[-84.8593,46.8888],[-85.2343,47.0476],[-85.2362,46.875]]]},"properties":{"n":"Chippewa","st":"open","note":"","upd":"2014","src":"https://www.vvmapping.com/trails/MICounties/MICounties.html","ok":0}},{"type":"Feature","geometry":{"type":"Polygon","coordinates":[[[-84.8375,43.0327],[-84.8371,42.7705],[-84.3637,42.77],[-84.3678,43.1179],[-84.8369,43.1189],[-84.8375,43.0327]]]},"properties":{"n":"Clinton","st":"none","note":"No county-wide ORV ordinance reported","upd":"","src":"https://www.vvmapping.com/trails/MICounties/MICounties.html","ok":0}},{"type":"Feature","geometry":{"type":"Polygon","coordinates":[[[-86.6782,46.1586],[-86.6156,46.1587],[-86.6154,46.3333],[-86.365,46.3319],[-86.365,46.5059],[-85.8649,46.5048],[-85.8549,47.3055],[-86.0001,47.3673],[-86.0001,47.3619],[-86.2501,47.4779],[-86.5001,47.5683],[-86.7501,47.6749],[-87.1127,47.818],[-87.1161,46.1591],[-86.6782,46.1586]]]},"properties":{"n":"Alger","st":"open","note":"","upd":"2014","src":"https://www.vvmapping.com/trails/MICounties/MICounties.html","ok":0}},{"type":"Feature","geometry":{"type":"Polygon","coordinates":[[[-85.8008,43.2929],[-85.5625,43.2943],[-85.5624,43.8155],[-86.0379,43.8156],[-86.039,43.2935],[-85.8008,43.2929]]]},"properties":{"n":"Newaygo","st":"open","note":"County ordinance: far right of the maintained portion of the road.","upd":"2026","src":"https://www.newaygocountymi.gov/departments/county-sherrif/county-orv-ordinance/","ok":1}},{"type":"Feature","geometry":{"type":"Polygon","coordinates":[[[-85.3119,42.944],[-85.3124,43.2942],[-85.7904,43.293],[-85.7825,42.7682],[-85.3096,42.7699],[-85.3119,42.944]]]},"properties":{"n":"Kent","st":"none","note":"No county-wide ORV ordinance reported","upd":"","src":"https://www.vvmapping.com/trails/MICounties/MICounties.html","ok":0}},{"type":"Feature","geometry":{"type":"Polygon","coordinates":[[[-84.1672,43.6375],[-84.1673,43.8259],[-84.3665,43.8284],[-84.3667,43.8136],[-84.606,43.8154],[-84.6075,43.466],[-84.3699,43.466],[-84.3698,43.4816],[-84.1706,43.482],[-84.1672,43.6375]]]},"properties":{"n":"Midland","st":"open","note":"","upd":"2014","src":"https://www.vvmapping.com/trails/MICounties/MICounties.html","ok":0}},{"type":"Feature","geometry":{"type":"Polygon","coordinates":[[[-85.0914,44.8587],[-84.8473,44.858],[-84.8495,45.0296],[-84.8573,45.0298],[-84.8575,45.1167],[-85.2237,45.1179],[-85.2227,45.2056],[-85.4589,45.2066],[-85.4689,45.1307],[-85.4807,45.1203],[-85.4329,45.0215],[-85.4277,44.9653],[-85.4738,44.8594],[-85.382,44.8596],[-85.374,44.8283],[-85.3453,44.8275],[-85.3328,44.8124],[-85.3165,44.8217],[-85.3277,44.8507],[-85.2917,44.8596],[-85.0914,44.8587]]]},"properties":{"n":"Antrim","st":"partial","note":"Some roads only","upd":"2014","src":"https://www.vvmapping.com/trails/MICounties/MICounties.html","ok":0}},{"type":"Feature","geometry":{"type":"Polygon","coordinates":[[[-85.3244,43.8144],[-85.5624,43.8155],[-85.5623,43.4681],[-85.085,43.4662],[-85.0888,43.8137],[-85.3244,43.8144]]]},"properties":{"n":"Mecosta","st":"open","note":"","upd":"2014","src":"https://www.vvmapping.com/trails/MICounties/MICounties.html","ok":0}},{"type":"Feature","geometry":{"type":"Polygon","coordinates":[[[-84.3633,42.0735],[-84.132,42.0716],[-84.1311,42.4246],[-84.7185,42.4215],[-84.7096,42.0704],[-84.3633,42.0735]]]},"properties":{"n":"Jackson","st":"none","note":"No county-wide ORV ordinance reported","upd":"","src":"https://www.vvmapping.com/trails/MICounties/MICounties.html","ok":0}},{"type":"Feature","geometry":{"type":"Polygon","coordinates":[[[-84.3665,43.8284],[-84.1673,43.8259],[-84.1661,44.1618],[-84.6081,44.1605],[-84.606,43.8154],[-84.3667,43.8136],[-84.3665,43.8284]]]},"properties":{"n":"Gladwin","st":"open","note":"","upd":"2016","src":"https://www.vvmapping.com/trails/MICounties/MICounties.html","ok":0}},{"type":"Feature","geometry":{"type":"Polygon","coordinates":[[[-85.9371,44.7783],[-86.7345,44.7731],[-86.8469,44.5194],[-85.8178,44.513],[-85.8151,44.7745],[-85.9371,44.7783]]]},"properties":{"n":"Benzie","st":"partial","note":"Some roads only; 30 min before sunrise to 11 PM","upd":"2014","src":"https://www.vvmapping.com/trails/MICounties/MICounties.html","ok":0}},{"type":"Feature","geometry":{"type":"Polygon","coordinates":[[[-85.8651,46.1584],[-85.8649,46.5048],[-86.365,46.5059],[-86.365,46.3319],[-86.6154,46.3333],[-86.6156,46.1587],[-86.4901,46.1582],[-86.4903,45.8963],[-86.4591,45.8964],[-86.4608,45.5844],[-85.8558,45.5784],[-85.8732,45.8179],[-85.8682,45.8198],[-85.8651,46.1584]]]},"properties":{"n":"Schoolcraft","st":"open","note":"","upd":"2014","src":"https://www.vvmapping.com/trails/MICounties/MICounties.html","ok":0}},{"type":"Feature","geometry":{"type":"Polygon","coordinates":[[[-84.1143,45.9782],[-84.1142,45.9852],[-84.2393,45.9849],[-84.2389,46.0715],[-84.3631,46.0716],[-84.3635,46.158],[-85.1125,46.1583],[-85.1133,46.2457],[-85.865,46.2446],[-85.8682,45.8198],[-85.759,45.8512],[-85.5701,45.8832],[-85.1251,45.8664],[-85.0418,45.8491],[-84.9425,45.8427],[-84.7655,45.8113],[-84.6955,45.8063],[-84.6308,45.7829],[-84.5688,45.7381],[-84.4973,45.7044],[-84.4369,45.6938],[-84.375,45.6944],[-84.1231,45.7777],[-84.1143,45.9782]]]},"properties":{"n":"Mackinac","st":"open","note":"","upd":"2014","src":"https://www.vvmapping.com/trails/MICounties/MICounties.html","ok":0}},{"type":"Feature","geometry":{"type":"Polygon","coordinates":[[[-83.5139,45.2071],[-82.6249,45.2128],[-82.4906,45.2085],[-82.5206,45.3359],[-83.484,45.7719],[-84.1231,45.7777],[-84.2011,45.7523],[-84.2043,45.6262],[-84.252,45.626],[-84.2466,45.1987],[-83.5139,45.2071]]]},"properties":{"n":"Presque Isle","st":"open","note":"","upd":"2014","src":"https://www.vvmapping.com/trails/MICounties/MICounties.html","ok":0}},{"type":"Feature","geometry":{"type":"Polygon","coordinates":[[[-88.5522,46.9385],[-88.4495,46.9393],[-88.0437,47.044],[-88.0461,47.1997],[-88.2984,47.1998],[-88.299,47.2861],[-88.5126,47.2859],[-88.9489,47.4771],[-88.9333,47.0313],[-88.9325,46.7648],[-88.8639,46.765],[-88.8645,46.6793],[-88.9895,46.6801],[-88.9912,46.4197],[-88.6794,46.4201],[-88.679,46.8518],[-88.5519,46.8518],[-88.5522,46.9385]]]},"properties":{"n":"Houghton","st":"open","note":"Primary roads mostly closed","upd":"2014","src":"https://www.vvmapping.com/trails/MICounties/MICounties.html","ok":0}},{"type":"Feature","geometry":{"type":"Polygon","coordinates":[[[-85.9084,43.2059],[-85.7907,43.2052],[-85.7904,43.293],[-86.039,43.2935],[-86.0395,43.4674],[-87.1403,43.4714],[-87.1472,43.3799],[-87.1077,43.1182],[-85.9074,43.1189],[-85.9084,43.2059]]]},"properties":{"n":"Muskegon","st":"none","note":"No county-wide ORV ordinance reported","upd":"","src":"https://www.vvmapping.com/trails/MICounties/MICounties.html","ok":0}},{"type":"Feature","geometry":{"type":"Polygon","coordinates":[[[-83.7739,42.0824],[-83.5394,42.0856],[-83.5519,42.4352],[-84.1311,42.4246],[-84.132,42.0716],[-83.7739,42.0824]]]},"properties":{"n":"Washtenaw","st":"none","note":"No county-wide ORV ordinance reported","upd":"","src":"https://www.vvmapping.com/trails/MICounties/MICounties.html","ok":0}},{"type":"Feature","geometry":{"type":"Polygon","coordinates":[[[-84.3686,44.2471],[-84.3706,44.5072],[-84.8509,44.5111],[-84.8558,44.422],[-84.8517,44.1614],[-84.368,44.1605],[-84.3686,44.2471]]]},"properties":{"n":"Roscommon","st":"open","note":"","upd":"2014","src":"https://www.vvmapping.com/trails/MICounties/MICounties.html","ok":0}},{"type":"Feature","geometry":{"type":"Polygon","coordinates":[[[-84.7343,45.2019],[-84.7327,45.2894],[-84.9648,45.2916],[-84.9651,45.2712],[-85.0035,45.273],[-85.0189,45.2896],[-85.015,45.2958],[-85.0228,45.3101],[-85.046,45.3347],[-85.0965,45.3357],[-85.0957,45.3751],[-85.1023,45.3974],[-85.2078,45.5],[-85.2832,45.5502],[-85.3063,45.5939],[-85.3076,45.625],[-85.2764,45.6976],[-85.2191,45.7902],[-85.2206,45.8336],[-85.2396,45.8707],[-85.5701,45.8832],[-85.759,45.8512],[-85.8732,45.8179],[-85.8558,45.5784],[-85.766,45.5555],[-85.6795,45.507],[-85.6251,45.4546],[-85.4879,45.2807],[-85.4693,45.25],[-85.4592,45.2066],[-85.2227,45.2056],[-85.2237,45.1179],[-84.7348,45.1149],[-84.7343,45.2019]]]},"properties":{"n":"Charlevoix","st":"open","note":"","upd":"2016","src":"https://www.vvmapping.com/trails/MICounties/MICounties.html","ok":0}},{"type":"Feature","geometry":{"type":"Polygon","coordinates":[[[-84.1582,42.7766],[-83.9225,42.7808],[-83.9299,42.9498],[-83.9291,43.1328],[-84.3679,43.1285],[-84.3637,42.7758],[-84.1582,42.7766]]]},"properties":{"n":"Shiawassee","st":"open","note":"16 and older","upd":"2018","src":"https://www.vvmapping.com/trails/MICounties/MICounties.html","ok":0}},{"type":"Feature","geometry":{"type":"Polygon","coordinates":[[[-83.4015,44.5117],[-82.3295,44.5128],[-82.4087,44.8581],[-82.4999,44.8576],[-82.4999,44.864],[-82.7499,44.8555],[-83.8885,44.8565],[-83.8866,44.509],[-83.4015,44.5117]]]},"properties":{"n":"Alcona","st":"open","note":"","upd":"2014","src":"https://www.vvmapping.com/trails/MICounties/MICounties.html","ok":0}},{"type":"Feature","geometry":{"type":"Polygon","coordinates":[[[-84.1674,43.615],[-84.1681,43.5689],[-84.05,43.5673],[-84.051,43.5241],[-83.8172,43.5223],[-83.8177,43.4791],[-83.6988,43.479],[-83.7083,43.8287],[-83.7136,43.8309],[-83.7085,43.8339],[-83.9076,43.9104],[-84.0448,43.9111],[-84.0454,43.997],[-84.1664,43.9969],[-84.1674,43.615]]]},"properties":{"n":"Bay","st":"partial","note":"Some townships only (each township sets its own rules)","upd":"2014","src":"https://www.vvmapping.com/trails/MICounties/MICounties.html","ok":0}},{"type":"Feature","geometry":{"type":"Polygon","coordinates":[[[-84.005,44.162],[-83.884,44.1618],[-83.8866,44.509],[-84.3706,44.5072],[-84.368,44.1605],[-84.005,44.162]]]},"properties":{"n":"Ogemaw","st":"partial","note":"Some roads only; 20 mph","upd":"2014","src":"https://www.vvmapping.com/trails/MICounties/MICounties.html","ok":0}},{"type":"Feature","geometry":{"type":"Polygon","coordinates":[[[-82.9286,42.4506],[-82.7499,42.4511],[-82.7232,42.4778],[-82.726,42.625],[-82.706,42.6863],[-82.7293,42.7061],[-82.739,42.8975],[-83.1029,42.8886],[-83.0834,42.4472],[-82.9286,42.4506]]]},"properties":{"n":"Macomb","st":"none","note":"No county-wide ORV ordinance reported","upd":"","src":"https://www.vvmapping.com/trails/MICounties/MICounties.html","ok":0}},{"type":"Feature","geometry":{"type":"Polygon","coordinates":[[[-83.3747,45.2071],[-83.8812,45.2021],[-83.8802,45.0306],[-83.8904,45.0305],[-83.8885,44.8565],[-82.7499,44.8555],[-82.4999,44.864],[-82.4999,44.8576],[-82.4087,44.8581],[-82.4906,45.2085],[-82.6249,45.2128],[-83.3747,45.2071]]]},"properties":{"n":"Alpena","st":"open","note":"","upd":"2014","src":"https://www.vvmapping.com/trails/MICounties/MICounties.html","ok":0}},{"type":"Feature","geometry":{"type":"Polygon","coordinates":[[[-85.5291,42.0707],[-85.2936,42.0716],[-85.2989,42.4198],[-85.7647,42.4207],[-85.7629,42.0693],[-85.5291,42.0707]]]},"properties":{"n":"Kalamazoo","st":"none","note":"No county-wide ORV ordinance reported","upd":"","src":"https://www.vvmapping.com/trails/MICounties/MICounties.html","ok":0}},{"type":"Feature","geometry":{"type":"Polygon","coordinates":[[[-85.641,44.7751],[-85.8151,44.7745],[-85.8178,44.513],[-85.334,44.5123],[-85.3328,44.8124],[-85.3453,44.8275],[-85.374,44.8283],[-85.382,44.8596],[-85.4738,44.8594],[-85.4277,44.9653],[-85.4329,45.0215],[-85.4807,45.1203],[-85.5505,45.0511],[-85.561,44.9554],[-85.5705,44.9301],[-85.5947,44.9011],[-85.5914,44.875],[-85.6143,44.8268],[-85.6123,44.7854],[-85.618,44.7746],[-85.641,44.7751]]]},"properties":{"n":"Grand Traverse","st":"partial","note":"Some roads only","upd":"2014","src":"https://www.vvmapping.com/trails/MICounties/MICounties.html","ok":0}},{"type":"Feature","geometry":{"type":"Polygon","coordinates":[[[-83.6985,43.3927],[-83.6988,43.479],[-83.8177,43.4791],[-83.8172,43.5223],[-84.051,43.5241],[-84.05,43.5673],[-84.1681,43.5689],[-84.1706,43.482],[-84.3698,43.4816],[-84.3679,43.1285],[-83.9291,43.1328],[-83.9321,43.2204],[-83.6956,43.2214],[-83.6985,43.3927]]]},"properties":{"n":"Saginaw","st":"open","note":"","upd":"2014","src":"https://www.vvmapping.com/trails/MICounties/MICounties.html","ok":0}},{"type":"Feature","geometry":{"type":"Polygon","coordinates":[[[-86.0398,43.5542],[-86.0379,43.8156],[-87.0931,43.8201],[-87.1251,43.6704],[-87.1403,43.4714],[-86.0395,43.4674],[-86.0398,43.5542]]]},"properties":{"n":"Oceana","st":"partial","note":"Township-by-township; see the county's ordinance list.","upd":"2026","src":"https://oceana.mi.us/courts-sheriff/orv-ordinances/","ok":1}},{"type":"Feature","geometry":{"type":"Polygon","coordinates":[[[-88.3083,48.2827],[-88.3699,48.3061],[-88.6774,48.2454],[-89.3375,47.9743],[-89.4834,48.0137],[-89.6807,47.7146],[-89.0001,47.4999],[-88.5126,47.2859],[-88.299,47.2861],[-88.2984,47.1998],[-88.0461,47.1997],[-88.0466,47.2187],[-87.1121,47.2233],[-87.1127,47.818],[-87.6251,48.0211],[-88.0001,48.1559],[-88.0001,48.1641],[-88.3083,48.2827]]]},"properties":{"n":"Keweenaw","st":"open","note":"16 and older; 6 AM to midnight","upd":"2014","src":"https://www.vvmapping.com/trails/MICounties/MICounties.html","ok":0}},{"type":"Feature","geometry":{"type":"Polygon","coordinates":[[[-82.4973,42.6956],[-82.4677,42.7619],[-82.4826,42.8086],[-82.4687,42.852],[-82.4693,42.8887],[-82.4556,42.9269],[-82.4167,42.9664],[-82.4135,42.9769],[-82.4244,42.997],[-82.411,43.0113],[-82.3341,43.1704],[-82.9963,43.1541],[-82.9836,42.8937],[-82.739,42.8975],[-82.7293,42.7061],[-82.706,42.6863],[-82.726,42.625],[-82.7232,42.4778],[-82.6543,42.5471],[-82.6337,42.5568],[-82.607,42.5483],[-82.59,42.551],[-82.5788,42.566],[-82.5234,42.6073],[-82.5102,42.6364],[-82.511,42.6643],[-82.4973,42.6956]]]},"properties":{"n":"St. Clair","st":"partial","note":"Some townships only (each township sets its own rules)","upd":"2014","src":"https://www.vvmapping.com/trails/MICounties/MICounties.html","ok":0}},{"type":"Feature","geometry":{"type":"Polygon","coordinates":[[[-84.1316,44.8549],[-83.8885,44.8566],[-83.8904,45.0305],[-83.8802,45.0306],[-83.8812,45.2021],[-84.3666,45.1987],[-84.3717,44.855],[-84.1316,44.8549]]]},"properties":{"n":"Montmorency","st":"mostly","note":"","upd":"2014","src":"https://www.vvmapping.com/trails/MICounties/MICounties.html","ok":0}},{"type":"Feature","geometry":{"type":"Polygon","coordinates":[[[-84.128,44.5081],[-83.8866,44.509],[-83.8885,44.8566],[-84.3717,44.855],[-84.3706,44.5072],[-84.128,44.5081]]]},"properties":{"n":"Oscoda","st":"open","note":"20 mph; 12 and older","upd":"2014","src":"https://www.vvmapping.com/trails/MICounties/MICounties.html","ok":0}},{"type":"Feature","geometry":{"type":"Polygon","coordinates":[[[-83.7872,42.4286],[-83.6648,42.4312],[-83.6865,42.7833],[-84.1582,42.7766],[-84.1417,42.5473],[-84.1407,42.4246],[-83.7872,42.4286]]]},"properties":{"n":"Livingston","st":"none","note":"No county-wide ORV ordinance reported","upd":"","src":"https://www.vvmapping.com/trails/MICounties/MICounties.html","ok":0}},{"type":"Feature","geometry":{"type":"Polygon","coordinates":[[[-85.6135,46.245],[-85.2378,46.2454],[-85.2343,47.0476],[-85.8549,47.3055],[-85.865,46.2446],[-85.6135,46.245]]]},"properties":{"n":"Luce","st":"mostly","note":"","upd":"2014","src":"https://www.vvmapping.com/trails/MICounties/MICounties.html","ok":0}}]}